{"fetched_at":"2026-07-11T09:24:26.975Z","source":"https://celestrak.org/NORAD/elements/gp.php?NAME=KINEIS&FORMAT=JSON","constellation":"kineis","records":[{"OBJECT_NAME":"KINEIS-2D","OBJECT_ID":"2025-028C","EPOCH":"2026-07-11T02:56:53.503008","CLASSIFICATION_TYPE":"U","MEAN_MOTION":14.75761172,"ECCENTRICITY":0.0004632,"INCLINATION":97.9274,"RA_OF_ASC_NODE":244.1072,"ARG_OF_PERICENTER":118.3792,"MEAN_ANOMALY":241.7885,"EPHEMERIS_TYPE":0,"NORAD_CAT_ID":62930,"ELEMENT_SET_NO":999,"REV_AT_EPOCH":7624,"BSTAR":0.00013548,"MEAN_MOTION_DOT":0.00000878,"MEAN_MOTION_DDOT":0},{"OBJECT_NAME":"KINEIS-2E","OBJECT_ID":"2025-028D","EPOCH":"2026-07-11T03:19:32.117088","CLASSIFICATION_TYPE":"U","MEAN_MOTION":14.77080761,"ECCENTRICITY":0.0002135,"INCLINATION":97.8943,"RA_OF_ASC_NODE":243.2613,"ARG_OF_PERICENTER":98.1876,"MEAN_ANOMALY":261.9577,"EPHEMERIS_TYPE":0,"NORAD_CAT_ID":62931,"ELEMENT_SET_NO":999,"REV_AT_EPOCH":7631,"BSTAR":0.00011638,"MEAN_MOTION_DOT":0.00000772,"MEAN_MOTION_DDOT":0},{"OBJECT_NAME":"KINEIS-2A","OBJECT_ID":"2025-028E","EPOCH":"2026-07-11T03:14:49.836192","CLASSIFICATION_TYPE":"U","MEAN_MOTION":14.73444269,"ECCENTRICITY":0.000606,"INCLINATION":98.1289,"RA_OF_ASC_NODE":247.5577,"ARG_OF_PERICENTER":93.4639,"MEAN_ANOMALY":266.7262,"EPHEMERIS_TYPE":0,"NORAD_CAT_ID":62932,"ELEMENT_SET_NO":999,"REV_AT_EPOCH":7613,"BSTAR":0.0001179,"MEAN_MOTION_DOT":0.00000714,"MEAN_MOTION_DDOT":0},{"OBJECT_NAME":"KINEIS-2B","OBJECT_ID":"2025-028G","EPOCH":"2026-07-11T02:42:14.338080","CLASSIFICATION_TYPE":"U","MEAN_MOTION":14.73445012,"ECCENTRICITY":0.0004967,"INCLINATION":97.9656,"RA_OF_ASC_NODE":244.5397,"ARG_OF_PERICENTER":83.0579,"MEAN_ANOMALY":277.1194,"EPHEMERIS_TYPE":0,"NORAD_CAT_ID":62934,"ELEMENT_SET_NO":999,"REV_AT_EPOCH":7618,"BSTAR":0.00011382,"MEAN_MOTION_DOT":0.00000689,"MEAN_MOTION_DDOT":0},{"OBJECT_NAME":"KINEIS-4E","OBJECT_ID":"2025-056A","EPOCH":"2026-07-11T04:07:26.658912","CLASSIFICATION_TYPE":"U","MEAN_MOTION":14.72295889,"ECCENTRICITY":0.0003039,"INCLINATION":97.9064,"RA_OF_ASC_NODE":315.4046,"ARG_OF_PERICENTER":92.4856,"MEAN_ANOMALY":267.67,"EPHEMERIS_TYPE":0,"NORAD_CAT_ID":63300,"ELEMENT_SET_NO":999,"REV_AT_EPOCH":7065,"BSTAR":0.00014286,"MEAN_MOTION_DOT":0.00000854,"MEAN_MOTION_DDOT":0},{"OBJECT_NAME":"KINEIS-4C","OBJECT_ID":"2025-056B","EPOCH":"2026-07-11T06:03:13.207680","CLASSIFICATION_TYPE":"U","MEAN_MOTION":14.7231766,"ECCENTRICITY":0.0002498,"INCLINATION":97.9118,"RA_OF_ASC_NODE":315.7291,"ARG_OF_PERICENTER":228.1905,"MEAN_ANOMALY":131.909,"EPHEMERIS_TYPE":0,"NORAD_CAT_ID":63301,"ELEMENT_SET_NO":999,"REV_AT_EPOCH":7067,"BSTAR":0.00014279,"MEAN_MOTION_DOT":0.00000854,"MEAN_MOTION_DDOT":0},{"OBJECT_NAME":"KINEIS-4D","OBJECT_ID":"2025-056C","EPOCH":"2026-07-11T04:30:15.615072","CLASSIFICATION_TYPE":"U","MEAN_MOTION":14.72419951,"ECCENTRICITY":0.0001225,"INCLINATION":97.9038,"RA_OF_ASC_NODE":315.6427,"ARG_OF_PERICENTER":237.1593,"MEAN_ANOMALY":122.9497,"EPHEMERIS_TYPE":0,"NORAD_CAT_ID":63302,"ELEMENT_SET_NO":999,"REV_AT_EPOCH":7066,"BSTAR":0.00014499,"MEAN_MOTION_DOT":0.00000871,"MEAN_MOTION_DDOT":0}]}
