KINEIS-2D               
1 62930U 25028C   26192.12284147  .00000878  00000+0  13548-3 0  9992
2 62930  97.9274 244.1072 0004632 118.3792 241.7885 14.75761172 76241
KINEIS-2E               
1 62931U 25028D   26192.13856617  .00000772  00000+0  11638-3 0  9992
2 62931  97.8943 243.2613 0002135  98.1876 261.9577 14.77080761 76319
KINEIS-2A               
1 62932U 25028E   26192.13529903  .00000714  00000+0  11790-3 0  9993
2 62932  98.1289 247.5577 0006060  93.4639 266.7262 14.73444269 76136
KINEIS-2B               
1 62934U 25028G   26192.11266595  .00000689  00000+0  11382-3 0  9996
2 62934  97.9656 244.5397 0004967  83.0579 277.1194 14.73445012 76184
KINEIS-4E               
1 63300U 25056A   26192.17183633  .00000854  00000+0  14286-3 0  9992
2 63300  97.9064 315.4046 0003039  92.4856 267.6700 14.72295889 70652
KINEIS-4C               
1 63301U 25056B   26192.25223620  .00000854  00000+0  14279-3 0  9995
2 63301  97.9118 315.7291 0002498 228.1905 131.9090 14.72317660 70678
KINEIS-4D               
1 63302U 25056C   26192.18768073  .00000871  00000+0  14499-3 0  9997
2 63302  97.9038 315.6427 0001225 237.1593 122.9497 14.72419951 70666
